NORAD_CAT_ID,OBJECT_NAME,OBJECT_TYPE,EPOCH,MEAN_MOTION,ECCENTRICITY,INCLINATION,RA_OF_ASC_NODE,ARG_OF_PERICENTER,MEAN_ANOMALY,BSTAR,MEAN_MOTION_DOT,MEAN_MOTION_DDOT,TLE_LINE0,TLE_LINE1,TLE_LINE2,SEMIMAJOR_AXIS,PERIOD,APOGEE,PERIGEE,DECAYED
52855.0,STARLINK-4209,PAYLOAD,2024-07-24 04:15:29,15.08833299,0.0001291,53.2167,168.4976,110.4783,249.6348,-3.5388e-05,-8.51e-06,0.0,0 STARLINK-4209,1 52855U 22062AB  24206.17742688 -.00000851  00000-0 -35388-4 0  9991,2 52855  53.2167 168.4976 0001291 110.4783 249.6348 15.08833299116810,6917.901,95.438,540.659,538.873,0.0
52855.0,STARLINK-4209,PAYLOAD,2024-07-24 07:26:16,15.08832793,0.0001308,53.2167,167.9035,111.0987,249.0145,-4.0903e-05,-9.39e-06,0.0,0 STARLINK-4209,1 52855U 22062AB  24206.30990776 -.00000939  00000-0 -40903-4 0  9995,2 52855  53.2167 167.9035 0001308 111.0987 249.0145 15.08832793116347,6917.902,95.438,540.672,538.863,0.0
52855.0,STARLINK-4209,PAYLOAD,2024-07-25 04:06:16,15.08841294,0.0001226,53.2166,164.0391,106.8365,253.2762,1.3178e-05,-7.8e-07,0.0,0 STARLINK-4209,1 52855U 22062AB  24207.17102227 -.00000078  00000-0  13178-4 0  9994,2 52855  53.2166 164.0391 0001226 106.8365 253.2762 15.08841294116966,6917.876,95.437,540.59,538.893,0.0
52855.0,STARLINK-4209,PAYLOAD,2024-07-25 07:17:02,15.08842533,0.0001242,53.2167,163.4439,109.5043,250.6083,2.387e-05,9.2e-07,0.0,0 STARLINK-4209,1 52855U 22062AB  24207.30350089  .00000092  00000-0  23870-4 0  9995,2 52855  53.2167 163.4439 0001242 109.5043 250.6083 15.08842533116496,6917.873,95.437,540.597,538.878,0.0
52855.0,STARLINK-4209,PAYLOAD,2024-07-26 03:57:03,15.08831309,0.0001213,53.2171,159.5775,110.0457,250.0666,7.5008e-05,9.06e-06,0.0,0 STARLINK-4209,1 52855U 22062AB  24208.16462778  .00000906  00000-0  75008-4 0  9993,2 52855  53.2171 159.5775 0001213 110.0457 250.0666 15.08831309117114,6917.907,95.438,540.611,538.933,0.0
52855.0,STARLINK-4209,PAYLOAD,2024-07-26 07:07:50,15.08831718,0.0001212,53.2171,158.9829,109.8211,250.2912,7.5068e-05,9.07e-06,0.0,0 STARLINK-4209,1 52855U 22062AB  24208.29710822  .00000907  00000-0  75068-4 0  9990,2 52855  53.2171 158.9829 0001212 109.8211 250.2912 15.08831718116647,6917.906,95.438,540.609,538.932,0.0
52855.0,STARLINK-4209,PAYLOAD,2024-07-26 13:29:21,15.08845199,0.0001238,53.218,157.7971,95.6201,264.4932,0.00012491,1.701e-05,0.0,0 STARLINK-4209,1 52855U 22062AB  24208.56205873  .00001701  00000-0  12491-3 0  9998,2 52855  53.2180 157.7971 0001238  95.6201 264.4932 15.08845199117177,6917.864,95.437,540.586,538.873,0.0
52855.0,STARLINK-4209,PAYLOAD,2024-07-28 03:38:38,15.08833332,0.0001218,53.2174,150.6614,111.8531,248.2591,2.4019e-05,9.4e-07,0.0,0 STARLINK-4209,1 52855U 22062AB  24210.15183150  .00000094  00000-0  24019-4 0  9993,2 52855  53.2174 150.6614 0001218 111.8531 248.2591 15.08833332117415,6917.901,95.438,540.608,538.923,0.0
52855.0,STARLINK-4209,PAYLOAD,2024-07-28 13:10:56,15.08836939,0.0001177,53.2177,148.8763,89.9132,270.1995,3.6717e-05,2.97e-06,0.0,0 STARLINK-4209,1 52855U 22062AB  24210.54927048  .00000297  00000-0  36717-4 0  9991,2 52855  53.2177 148.8763 0001177  89.9132 270.1995 15.08836939116987,6917.89,95.438,540.569,538.941,0.0
52855.0,STARLINK-4209,PAYLOAD,2024-07-29 13:01:43,15.08845292,0.0001228,53.2173,144.41,105.179,254.9338,0.00013166,1.808e-05,0.0,0 STARLINK-4209,1 52855U 22062AB  24211.54286285  .00001808  00000-0  13166-3 0  9994,2 52855  53.2173 144.4100 0001228 105.1790 254.9338 15.08845292117623,6917.864,95.437,540.579,538.88,0.0
52855.0,STARLINK-4209,PAYLOAD,2024-07-30 01:44:49,15.08831288,0.0001192,53.2172,142.0334,99.234,260.8787,-2.5252e-06,-3.28e-06,0.0,0 STARLINK-4209,1 52855U 22062AB  24212.07279771 -.00000328  00000-0 -25252-5 0  9994,2 52855  53.2172 142.0334 0001192  99.2340 260.8787 15.08831288117702,6917.907,95.438,540.597,538.947,0.0
52855.0,STARLINK-4209,PAYLOAD,2024-07-30 12:52:30,15.08845881,0.0001493,53.2189,139.9503,103.0407,257.0752,0.00011136,1.485e-05,0.0,0 STARLINK-4209,1 52855U 22062AB  24212.53646513  .00001485  00000-0  11136-3 0  9994,2 52855  53.2189 139.9503 0001493 103.0407 257.0752 15.08845881117776,6917.862,95.437,540.76,538.695,0.0
52855.0,STARLINK-4209,PAYLOAD,2024-07-30 22:24:49,15.08844752,0.0001444,53.2186,138.1688,100.2958,259.8197,0.00014634,2.042e-05,0.0,0 STARLINK-4209,1 52855U 22062AB  24212.93390440  .00002042  00000-0  14634-3 0  9999,2 52855  53.2186 138.1688 0001444 100.2958 259.8197 15.08844752117346,6917.866,95.437,540.73,538.732,0.0
52855.0,STARLINK-4209,PAYLOAD,2024-07-31 01:35:35,15.08850478,0.0001469,53.2184,137.5742,102.652,257.4637,8.7567e-05,1.106e-05,0.0,0 STARLINK-4209,1 52855U 22062AB  24213.06638310  .00001106  00000-0  87567-4 0  9991,2 52855  53.2184 137.5742 0001469 102.6520 257.4637 15.08850478117363,6917.848,95.437,540.73,538.697,0.0
52855.0,STARLINK-4209,PAYLOAD,2024-07-31 22:15:36,15.08836583,0.000143,53.2193,133.7065,110.1558,249.9588,4.5974e-05,4.44e-06,0.0,0 STARLINK-4209,1 52855U 22062AB  24213.92751139  .00000444  00000-0  45974-4 0  9991,2 52855  53.2193 133.7065 0001430 110.1558 249.9588 15.08836583117498,6917.891,95.438,540.745,538.767,0.0
52855.0,STARLINK-4209,PAYLOAD,2024-08-01 01:26:23,15.08833713,0.0001248,53.2168,133.1129,84.5018,275.6116,-8.2772e-06,-4.2e-06,0.0,0 STARLINK-4209,1 52855U 22062AB  24214.05999607 -.00000420  00000-0 -82772-5 0  9994,2 52855  53.2168 133.1129 0001248  84.5018 275.6116 15.08833713118000,6917.9,95.438,540.628,538.901,0.0
52855.0,STARLINK-4209,PAYLOAD,2024-08-01 22:06:24,15.08838479,0.0001327,53.2167,129.2485,100.8317,259.2824,-2.9559e-05,-7.58e-06,0.0,0 STARLINK-4209,1 52855U 22062AB  24214.92111340 -.00000758  00000-0 -29559-4 0  9997,2 52855  53.2167 129.2485 0001327 100.8317 259.2824 15.08838479117649,6917.885,95.438,540.668,538.832,0.0
52855.0,STARLINK-4209,PAYLOAD,2024-08-02 01:17:10,15.08841369,0.000125,53.2165,128.6557,92.7349,267.3786,2.9718e-05,1.85e-06,0.0,0 STARLINK-4209,1 52855U 22062AB  24215.05359044  .00000185  00000-0  29718-4 0  9996,2 52855  53.2165 128.6557 0001250  92.7349 267.3786 15.08841369118155,6917.876,95.437,540.606,538.876,0.0
52855.0,STARLINK-4209,PAYLOAD,2024-08-02 10:49:27,15.08857507,0.0001293,53.2175,126.8705,102.6014,257.5123,0.00011796,1.591e-05,0.0,0 STARLINK-4209,1 52855U 22062AB  24215.45101635  .00001591  00000-0  11796-3 0  9999,2 52855  53.2175 126.8705 0001293 102.6014 257.5123 15.08857507118212,6917.827,95.436,540.586,538.797,0.0
52855.0,STARLINK-4209,PAYLOAD,2024-08-02 18:46:25,15.08829982,0.0002043,53.2171,125.3837,83.2155,276.9069,3.4832e-05,2.66e-06,0.0,0 STARLINK-4209,1 52855U 22062AB  24215.78223820  .00000266  00000-0  34832-4 0  9991,2 52855  53.2171 125.3837 0002043  83.2155 276.9069 15.08829982118267,6917.911,95.438,541.189,538.363,0.0
52855.0,STARLINK-4209,PAYLOAD,2024-08-02 21:57:12,15.08819308,0.0001402,53.2166,124.7878,84.55,275.5652,-5.5519e-05,-1.171e-05,0.0,0 STARLINK-4209,1 52855U 22062AB  24215.91472735 -.00001171  00000-0 -55519-4 0  9990,2 52855  53.2166 124.7878 0001402  84.5500 275.5652 15.08819308117796,6917.944,95.439,540.779,538.839,0.0
52855.0,STARLINK-4209,PAYLOAD,2024-08-03 01:07:58,15.08822215,0.0001688,53.2188,124.2004,120.6142,239.5017,1.7487e-05,-1e-07,0.0,0 STARLINK-4209,1 52855U 22062AB  24216.04720416 -.00000010  00000-0  17487-4 0  9999,2 52855  53.2188 124.2004 0001688 120.6142 239.5017 15.08822215118300,6917.935,95.439,540.967,538.632,0.0
52855.0,STARLINK-4209,PAYLOAD,2024-08-03 18:37:12,15.08831311,0.000147,53.2194,120.9285,105.2433,254.8722,5.4334e-05,5.77e-06,0.0,0 STARLINK-4209,1 52855U 22062AB  24216.77584229  .00000577  00000-0  54334-4 0  9998,2 52855  53.2194 120.9285 0001470 105.2433 254.8722 15.08831311118414,6917.907,95.438,540.789,538.755,0.0
52855.0,STARLINK-4209,PAYLOAD,2024-08-03 21:47:59,15.08832386,0.0001414,53.2193,120.3338,104.3772,255.7378,5.7307e-05,6.24e-06,0.0,0 STARLINK-4209,1 52855U 22062AB  24216.90832241  .00000624  00000-0  57307-4 0  9999,2 52855  53.2193 120.3338 0001414 104.3772 255.7378 15.08832386117947,6917.904,95.438,540.747,538.79,0.0
52855.0,STARLINK-4209,PAYLOAD,2024-08-04 02:34:08,15.08837516,0.0001403,53.219,119.4414,102.0751,258.0398,0.00011051,1.471e-05,0.0,0 STARLINK-4209,1 52855U 22062AB  24217.10703952  .00001471  00000-0  11051-3 0  9994,2 52855  53.2190 119.4414 0001403 102.0751 258.0398 15.08837516118464,6917.888,95.438,540.724,538.782,0.0
52855.0,STARLINK-4209,PAYLOAD,2024-08-04 21:38:47,15.08805272,0.0001317,53.2186,115.8723,109.1536,250.9599,0.00060653,9.369e-05,0.0,0 STARLINK-4209,1 52855U 22062AB  24217.90193519  .00009369  00000-0  60653-3 0  9990,2 52855  53.2186 115.8723 0001317 109.1536 250.9599 15.08805272118586,6917.987,95.44,540.763,538.94,0.0
52855.0,STARLINK-4209,PAYLOAD,2024-08-05 00:49:32,15.08835202,0.0001314,53.2178,115.2753,95.468,264.6462,0.00018101,2.594e-05,0.0,0 STARLINK-4209,1 52855U 22062AB  24218.03440359  .00002594  00000-0  18101-3 0  9996,2 52855  53.2178 115.2753 0001314  95.4680 264.6462 15.08835202118608,6917.895,95.438,540.669,538.851,0.0
52855.0,STARLINK-4209,PAYLOAD,2024-08-05 21:29:34,15.08817215,0.0001436,53.2176,111.4073,85.5561,274.5595,-0.00021586,-3.72e-05,0.0,0 STARLINK-4209,1 52855U 22062AB  24218.89553774 -.00003720  00000-0 -21586-3 0  9991,2 52855  53.2176 111.4073 0001436  85.5561 274.5595 15.08817215118737,6917.95,95.439,540.808,538.822,0.0
52855.0,STARLINK-4209,PAYLOAD,2024-08-05 23:04:57,15.08813943,9.85e-05,53.2173,111.111,88.1497,271.9608,-0.00025918,-4.407e-05,0.0,0 STARLINK-4209,1 52855U 22062AB  24218.96177903 -.00004407  00000-0 -25918-3 0  9991,2 52855  53.2173 111.1110 0000985  88.1497 271.9608 15.08813943118255,6917.96,95.439,540.506,539.144,0.0
52855.0,STARLINK-4209,PAYLOAD,2024-08-06 00:40:20,15.08819712,0.0001417,53.2167,110.8133,79.4515,280.6637,-0.00017168,-3.018e-05,0.0,0 STARLINK-4209,1 52855U 22062AB  24219.02801777 -.00003018  00000-0 -17168-3 0  9997,2 52855  53.2167 110.8133 0001417  79.4515 280.6637 15.08819712118264,6917.942,95.439,540.788,538.827,0.0
